BADR-5                  
1 36592U 10025A   26063.84747520  .00000135  00000+0  00000+0 0  9994
2 36592   0.0367 129.2821 0001474 262.9203 101.4520  1.00276295 52178
COMS 1                  
1 36744U 10032A   26063.70871568 -.00000353  00000+0  00000+0 0  9999
2 36744   4.5366  76.8652 0001200 284.1468 184.7502  1.00272271 50048
ARABSAT-5A              
1 36745U 10032B   26063.36544733  .00000142  00000+0  00000+0 0  9998
2 36745   0.0715  52.0432 0002822 317.9219 314.1895  1.00270709 57595
ECHOSTAR 15             
1 36792U 10034A   26063.41503084 -.00000012  00000+0  00000+0 0  9999
2 36792   0.0517 279.0583 0002177  49.3682 224.3300  1.00270831 57272
BEIDOU-2 IGSO-1         
1 36828U 10036A   26063.53912355 -.00000138  00000+0  00000+0 0  9998
2 36828  54.2925 163.9091 0054014 218.9469  78.5819  1.00252363 57044
NILESAT 201             
1 36830U 10037A   26063.32128137 -.00000070  00000+0  00000+0 0  9991
2 36830   0.0187 178.5671 0003025 173.3179 278.8131  1.00272581 57327
RASCOM-QAF 1R           
1 36831U 10037B   26063.38239013  .00000007  00000+0  00000+0 0  9993
2 36831   0.0290 122.2302 0006568 214.4609 325.9829  1.00271137 57256
AEHF-1 (USA 214)        
1 36868U 10039A   26063.20114141  .00000140  00000+0  00000+0 0  9998
2 36868   7.9626  69.4148 0004412 262.4668 292.5573  1.00278598 52606
XM-5                    
1 37185U 10053A   26063.48864072 -.00000034  00000+0  00000+0 0  9995
2 37185   0.0669 274.6489 0003260 252.8420  55.4355  1.00270210 56439
BSAT-3B                 
1 37207U 10056B   26063.84615947 -.00000360  00000+0  00000+0 0  9990
2 37207   0.0836 248.1360 0001786  35.6073 293.2912  1.00270385 51053
BEIDOU-2 G4             
1 37210U 10057A   26063.82581160 -.00000121  00000+0  00000+0 0  9997
2 37210   3.3879  69.5480 0009020 210.9407 339.3787  1.00272165 56242
SKYTERRA 1              
1 37218U 10061A   26063.06561393 -.00000128  00000+0  00000+0 0  9999
2 37218   4.9016  50.9140 0001603 293.9262  99.2594  1.00271469 56149
HYLAS 1                 
1 37237U 10065A   26063.38239013  .00000043  00000+0  00000+0 0  9995
2 37237   5.3776  74.3063 0003089 330.2191 254.5655  1.00650076  5837
INTELSAT 17 (IS-17)     
1 37238U 10065B   26063.65095530 -.00000012  00000+0  00000+0 0  9997
2 37238   0.0187 197.9066 0002426 151.6096 113.2049  1.00272648 52198
BEIDOU-2 IGSO-2         
1 37256U 10068A   26063.55016868 -.00000178  00000+0  00000+0 0  9999
2 37256  47.7317 273.1244 0047330 213.1251 341.1802  1.00258965 55745
EUTELSAT KA-SAT 9A      
1 37258U 10069A   26063.37683795  .00000050  00000+0  00000+0 0  9999
2 37258   0.0565 356.5485 0002587 146.5926 163.6445  1.00273124 42953
HISPASAT 30W-5          
1 37264U 10070A   26063.39905791 -.00000228  00000+0  00000+0 0  9991
2 37264   0.0141 159.5691 0003286 204.3922 271.8207  1.00270070 52132
